format  = 'OEF1.1'       ! file format
rectype = 'ML'           ! record type (1L/ML)
refsys  = ECLM J2000     ! default reference system
END_OF_HEADER
!MOID  1.69945    0
!NODES  2.65921  1.73359
1220 T-2
! Equinoctial elements: a, e*sin(LP), e*cos(LP), tan(i/2)*sin(LN), tan(i/2)*cos(LN), mean long.
 EQU   3.21089138344680E+00  0.115720896551644  0.107938057843161 -0.002391255571603 -0.000581030615159  12.6752689353189
 MJD     46151.12607656 TDT
 MAG  14.426  0.150
! RMS    2.17315E-05   1.46246E-04   2.06448E-03   3.55839E-06   1.36672E-05   1.82513E-02
! EIG   9.34223E-08   2.88960E-07   3.59736E-07   5.40766E-06   2.69519E-04   2.07676E-03
! WEA   0.00997   0.01025  -0.99402  -0.00170  -0.00601  -0.10804
 COV   4.722593075243576E-10 -5.110285200679204E-10 -4.260436115523789E-08
 COV  -7.327883578513072E-11 -2.672714343348648E-10 -3.514875077361713E-07
 COV   2.138788167520022E-08 -4.727577307268462E-08 -7.626012414750186E-11
 COV  -7.190584624894149E-11  1.600895834103679E-06  4.262085839666601E-06
 COV   7.308067013670279E-09  2.573276224579167E-08  2.623933825249707E-05
 COV   1.266213551718870E-11  4.431701126820995E-11  4.542734181981261E-08
 COV   1.867929041553917E-10  1.777835829752762E-07  3.331081531370941E-04
 NOR   1.144960478614498E+14  1.173733187618217E+12  8.710313851277626E+11
 NOR   1.160639268032870E+11 -8.824765095439116E+10  4.659158041280145E+10
 NOR   8.532489828572466E+12  6.818164584543632E+11  6.952134934807425E+10
 NOR  -8.119739243221046E+09 -9.348075652979781E+10  5.978946086768107E+10
 NOR  -6.646837283798658E+09 -1.359890503417994E+09 -7.065731139765165E+09
 NOR   7.728819105800688E+12 -3.838281705684621E+10 -7.215935027752542E+08
 NOR   3.445838257002571E+10  3.987002793247231E+07  1.055081090282829E+09
!MOID  1.71121    0
!NODES  2.62087  1.76274
